KUIPER-00035            
1 63748U 25088AA  25197.58335648  .00043414  00000+0  23697-2 0  9991
2 63748  51.8789  82.5286 0004242  58.4400 314.2289 15.13910658 12485
KUIPER-00037            
1 63749U 25088AB  25197.58335648  .00032787  00000+0  17355-2 0  9997
2 63749  51.8814  82.0162 0002992 335.2455 232.1418 15.15138049 13277
KUIPER-00038            
1 63750U 25088AC  25196.93587638  .00011908  00000+0  32875-3 0  9992
2 63750  51.8707  81.2364 0004890  40.3663 319.7686 15.37491158 12230
KUIPER-00039            
1 64500U 25134A   25197.43969570  .00013538  00000+0  40602-3 0  9991
2 64500  51.8679 220.2699 0007503 196.3691 163.7053 15.34747647  4314
KUIPER-00040            
1 64501U 25134B   25197.45307190  .00008803  00000+0  27549-3 0  9992
2 64501  51.8658 220.3510 0010812 208.6252 151.4141 15.33856718  4313
KUIPER-00041            
1 64502U 25134C   25197.50002315  .00042749  00000+0  14325-2 0  9994
2 64502  51.8703 220.0769 0008903 205.8242  72.8916 15.30468836  4317
KUIPER-00042            
1 64503U 25134D   25197.44425018  .00013047  00000+0  39504-3 0  9993
2 64503  51.8654 220.2949 0008709 197.1726 162.8966 15.34473722  4318
KUIPER-00043            
1 64504U 25134E   25197.44080094  .00014389  00000+0  43199-3 0  9990
2 64504  51.8688 220.2788 0007943 191.4660 168.6146 15.34658153  4698
