<?xml version="1.0" encoding="UTF-8"?>
<ndm xmlns:xsi="http://www.w3.org/2001/XMLSchema-instance" xsi:noNamespaceSchemaLocation="https://sanaregistry.org/r/ndmxml_unqualified/ndmxml-2.0.0-master-2.0.xsd">
<omm id="CCSDS_OMM_VERS" version="2.0">
<header><CREATION_DATE/><ORIGINATOR/></header><body><segment><metadata><OBJECT_NAME>KUIPER-00035</OBJECT_NAME><OBJECT_ID>2025-088AA</OBJECT_ID><CENTER_NAME>EARTH</CENTER_NAME><REF_FRAME>TEME</REF_FRAME><TIME_SYSTEM>UTC</TIME_SYSTEM><MEAN_ELEMENT_THEORY>SGP4</MEAN_ELEMENT_THEORY></metadata><data><meanElements><EPOCH>2025-07-16T14:00:01.999872</EPOCH><MEAN_MOTION>15.13910658</MEAN_MOTION><ECCENTRICITY>.0004242</ECCENTRICITY><INCLINATION>51.8789</INCLINATION><RA_OF_ASC_NODE>82.5286</RA_OF_ASC_NODE><ARG_OF_PERICENTER>58.4400</ARG_OF_PERICENTER><MEAN_ANOMALY>314.2289</MEAN_ANOMALY></meanElements><tleParameters><EPHEMERIS_TYPE>0</EPHEMERIS_TYPE><CLASSIFICATION_TYPE>U</CLASSIFICATION_TYPE><NORAD_CAT_ID>63748</NORAD_CAT_ID><ELEMENT_SET_NO>999</ELEMENT_SET_NO><REV_AT_EPOCH>1248</REV_AT_EPOCH><BSTAR>.23697E-2</BSTAR><MEAN_MOTION_DOT>.43414E-3</MEAN_MOTION_DOT><MEAN_MOTION_DDOT>0</MEAN_MOTION_DDOT></tleParameters></data></segment></body></omm>
<omm id="CCSDS_OMM_VERS" version="2.0">
<header><CREATION_DATE/><ORIGINATOR/></header><body><segment><metadata><OBJECT_NAME>KUIPER-00037</OBJECT_NAME><OBJECT_ID>2025-088AB</OBJECT_ID><CENTER_NAME>EARTH</CENTER_NAME><REF_FRAME>TEME</REF_FRAME><TIME_SYSTEM>UTC</TIME_SYSTEM><MEAN_ELEMENT_THEORY>SGP4</MEAN_ELEMENT_THEORY></metadata><data><meanElements><EPOCH>2025-07-16T14:00:01.999872</EPOCH><MEAN_MOTION>15.15138049</MEAN_MOTION><ECCENTRICITY>.0002992</ECCENTRICITY><INCLINATION>51.8814</INCLINATION><RA_OF_ASC_NODE>82.0162</RA_OF_ASC_NODE><ARG_OF_PERICENTER>335.2455</ARG_OF_PERICENTER><MEAN_ANOMALY>232.1418</MEAN_ANOMALY></meanElements><tleParameters><EPHEMERIS_TYPE>0</EPHEMERIS_TYPE><CLASSIFICATION_TYPE>U</CLASSIFICATION_TYPE><NORAD_CAT_ID>63749</NORAD_CAT_ID><ELEMENT_SET_NO>999</ELEMENT_SET_NO><REV_AT_EPOCH>1327</REV_AT_EPOCH><BSTAR>.17355E-2</BSTAR><MEAN_MOTION_DOT>.32787E-3</MEAN_MOTION_DOT><MEAN_MOTION_DDOT>0</MEAN_MOTION_DDOT></tleParameters></data></segment></body></omm>
<omm id="CCSDS_OMM_VERS" version="2.0">
<header><CREATION_DATE/><ORIGINATOR/></header><body><segment><metadata><OBJECT_NAME>KUIPER-00038</OBJECT_NAME><OBJECT_ID>2025-088AC</OBJECT_ID><CENTER_NAME>EARTH</CENTER_NAME><REF_FRAME>TEME</REF_FRAME><TIME_SYSTEM>UTC</TIME_SYSTEM><MEAN_ELEMENT_THEORY>SGP4</MEAN_ELEMENT_THEORY></metadata><data><meanElements><EPOCH>2025-07-15T22:27:39.719232</EPOCH><MEAN_MOTION>15.37491158</MEAN_MOTION><ECCENTRICITY>.000489</ECCENTRICITY><INCLINATION>51.8707</INCLINATION><RA_OF_ASC_NODE>81.2364</RA_OF_ASC_NODE><ARG_OF_PERICENTER>40.3663</ARG_OF_PERICENTER><MEAN_ANOMALY>319.7686</MEAN_ANOMALY></meanElements><tleParameters><EPHEMERIS_TYPE>0</EPHEMERIS_TYPE><CLASSIFICATION_TYPE>U</CLASSIFICATION_TYPE><NORAD_CAT_ID>63750</NORAD_CAT_ID><ELEMENT_SET_NO>999</ELEMENT_SET_NO><REV_AT_EPOCH>1223</REV_AT_EPOCH><BSTAR>.32875E-3</BSTAR><MEAN_MOTION_DOT>.11908E-3</MEAN_MOTION_DOT><MEAN_MOTION_DDOT>0</MEAN_MOTION_DDOT></tleParameters></data></segment></body></omm>
<omm id="CCSDS_OMM_VERS" version="2.0">
<header><CREATION_DATE/><ORIGINATOR/></header><body><segment><metadata><OBJECT_NAME>KUIPER-00039</OBJECT_NAME><OBJECT_ID>2025-134A</OBJECT_ID><CENTER_NAME>EARTH</CENTER_NAME><REF_FRAME>TEME</REF_FRAME><TIME_SYSTEM>UTC</TIME_SYSTEM><MEAN_ELEMENT_THEORY>SGP4</MEAN_ELEMENT_THEORY></metadata><data><meanElements><EPOCH>2025-07-16T10:33:09.708480</EPOCH><MEAN_MOTION>15.34747647</MEAN_MOTION><ECCENTRICITY>.0007503</ECCENTRICITY><INCLINATION>51.8679</INCLINATION><RA_OF_ASC_NODE>220.2699</RA_OF_ASC_NODE><ARG_OF_PERICENTER>196.3691</ARG_OF_PERICENTER><MEAN_ANOMALY>163.7053</MEAN_ANOMALY></meanElements><tleParameters><EPHEMERIS_TYPE>0</EPHEMERIS_TYPE><CLASSIFICATION_TYPE>U</CLASSIFICATION_TYPE><NORAD_CAT_ID>64500</NORAD_CAT_ID><ELEMENT_SET_NO>999</ELEMENT_SET_NO><REV_AT_EPOCH>431</REV_AT_EPOCH><BSTAR>.40602E-3</BSTAR><MEAN_MOTION_DOT>.13538E-3</MEAN_MOTION_DOT><MEAN_MOTION_DDOT>0</MEAN_MOTION_DDOT></tleParameters></data></segment></body></omm>
<omm id="CCSDS_OMM_VERS" version="2.0">
<header><CREATION_DATE/><ORIGINATOR/></header><body><segment><metadata><OBJECT_NAME>KUIPER-00040</OBJECT_NAME><OBJECT_ID>2025-134B</OBJECT_ID><CENTER_NAME>EARTH</CENTER_NAME><REF_FRAME>TEME</REF_FRAME><TIME_SYSTEM>UTC</TIME_SYSTEM><MEAN_ELEMENT_THEORY>SGP4</MEAN_ELEMENT_THEORY></metadata><data><meanElements><EPOCH>2025-07-16T10:52:25.412160</EPOCH><MEAN_MOTION>15.33856718</MEAN_MOTION><ECCENTRICITY>.0010812</ECCENTRICITY><INCLINATION>51.8658</INCLINATION><RA_OF_ASC_NODE>220.3510</RA_OF_ASC_NODE><ARG_OF_PERICENTER>208.6252</ARG_OF_PERICENTER><MEAN_ANOMALY>151.4141</MEAN_ANOMALY></meanElements><tleParameters><EPHEMERIS_TYPE>0</EPHEMERIS_TYPE><CLASSIFICATION_TYPE>U</CLASSIFICATION_TYPE><NORAD_CAT_ID>64501</NORAD_CAT_ID><ELEMENT_SET_NO>999</ELEMENT_SET_NO><REV_AT_EPOCH>431</REV_AT_EPOCH><BSTAR>.27549E-3</BSTAR><MEAN_MOTION_DOT>.8803E-4</MEAN_MOTION_DOT><MEAN_MOTION_DDOT>0</MEAN_MOTION_DDOT></tleParameters></data></segment></body></omm>
<omm id="CCSDS_OMM_VERS" version="2.0">
<header><CREATION_DATE/><ORIGINATOR/></header><body><segment><metadata><OBJECT_NAME>KUIPER-00041</OBJECT_NAME><OBJECT_ID>2025-134C</OBJECT_ID><CENTER_NAME>EARTH</CENTER_NAME><REF_FRAME>TEME</REF_FRAME><TIME_SYSTEM>UTC</TIME_SYSTEM><MEAN_ELEMENT_THEORY>SGP4</MEAN_ELEMENT_THEORY></metadata><data><meanElements><EPOCH>2025-07-16T12:00:02.000160</EPOCH><MEAN_MOTION>15.30468836</MEAN_MOTION><ECCENTRICITY>.0008903</ECCENTRICITY><INCLINATION>51.8703</INCLINATION><RA_OF_ASC_NODE>220.0769</RA_OF_ASC_NODE><ARG_OF_PERICENTER>205.8242</ARG_OF_PERICENTER><MEAN_ANOMALY>72.8916</MEAN_ANOMALY></meanElements><tleParameters><EPHEMERIS_TYPE>0</EPHEMERIS_TYPE><CLASSIFICATION_TYPE>U</CLASSIFICATION_TYPE><NORAD_CAT_ID>64502</NORAD_CAT_ID><ELEMENT_SET_NO>999</ELEMENT_SET_NO><REV_AT_EPOCH>431</REV_AT_EPOCH><BSTAR>.14325E-2</BSTAR><MEAN_MOTION_DOT>.42749E-3</MEAN_MOTION_DOT><MEAN_MOTION_DDOT>0</MEAN_MOTION_DDOT></tleParameters></data></segment></body></omm>
<omm id="CCSDS_OMM_VERS" version="2.0">
<header><CREATION_DATE/><ORIGINATOR/></header><body><segment><metadata><OBJECT_NAME>KUIPER-00042</OBJECT_NAME><OBJECT_ID>2025-134D</OBJECT_ID><CENTER_NAME>EARTH</CENTER_NAME><REF_FRAME>TEME</REF_FRAME><TIME_SYSTEM>UTC</TIME_SYSTEM><MEAN_ELEMENT_THEORY>SGP4</MEAN_ELEMENT_THEORY></metadata><data><meanElements><EPOCH>2025-07-16T10:39:43.215552</EPOCH><MEAN_MOTION>15.34473722</MEAN_MOTION><ECCENTRICITY>.0008709</ECCENTRICITY><INCLINATION>51.8654</INCLINATION><RA_OF_ASC_NODE>220.2949</RA_OF_ASC_NODE><ARG_OF_PERICENTER>197.1726</ARG_OF_PERICENTER><MEAN_ANOMALY>162.8966</MEAN_ANOMALY></meanElements><tleParameters><EPHEMERIS_TYPE>0</EPHEMERIS_TYPE><CLASSIFICATION_TYPE>U</CLASSIFICATION_TYPE><NORAD_CAT_ID>64503</NORAD_CAT_ID><ELEMENT_SET_NO>999</ELEMENT_SET_NO><REV_AT_EPOCH>431</REV_AT_EPOCH><BSTAR>.39504E-3</BSTAR><MEAN_MOTION_DOT>.13047E-3</MEAN_MOTION_DOT><MEAN_MOTION_DDOT>0</MEAN_MOTION_DDOT></tleParameters></data></segment></body></omm>
<omm id="CCSDS_OMM_VERS" version="2.0">
<header><CREATION_DATE/><ORIGINATOR/></header><body><segment><metadata><OBJECT_NAME>KUIPER-00043</OBJECT_NAME><OBJECT_ID>2025-134E</OBJECT_ID><CENTER_NAME>EARTH</CENTER_NAME><REF_FRAME>TEME</REF_FRAME><TIME_SYSTEM>UTC</TIME_SYSTEM><MEAN_ELEMENT_THEORY>SGP4</MEAN_ELEMENT_THEORY></metadata><data><meanElements><EPOCH>2025-07-16T10:34:45.201216</EPOCH><MEAN_MOTION>15.34658153</MEAN_MOTION><ECCENTRICITY>.0007943</ECCENTRICITY><INCLINATION>51.8688</INCLINATION><RA_OF_ASC_NODE>220.2788</RA_OF_ASC_NODE><ARG_OF_PERICENTER>191.4660</ARG_OF_PERICENTER><MEAN_ANOMALY>168.6146</MEAN_ANOMALY></meanElements><tleParameters><EPHEMERIS_TYPE>0</EPHEMERIS_TYPE><CLASSIFICATION_TYPE>U</CLASSIFICATION_TYPE><NORAD_CAT_ID>64504</NORAD_CAT_ID><ELEMENT_SET_NO>999</ELEMENT_SET_NO><REV_AT_EPOCH>469</REV_AT_EPOCH><BSTAR>.43199E-3</BSTAR><MEAN_MOTION_DOT>.14389E-3</MEAN_MOTION_DOT><MEAN_MOTION_DDOT>0</MEAN_MOTION_DDOT></tleParameters></data></segment></body></omm>

</ndm>
